{
  "norad_id": 64577,
  "name": "LYRA-3",
  "history": [
    {
      "epoch": "2026-03-28T20:59:00.468672Z",
      "apogee_km": 661.5771549340197,
      "perigee_km": 633.6899044858528,
      "latitude_deg": 2.1141456666107537e-05,
      "longitude_deg": 55.127748190874584,
      "height_km": 657.837186100163,
      "semi_major_axis_km": 7025.7705297099355,
      "eccentricity": 0.00198464,
      "inclination_deg": 97.7655,
      "raan_deg": 196.1682,
      "arg_perigee_deg": 239.0087,
      "mean_anomaly_deg": 120.9173,
      "mean_motion_rev_day": 14.74218376
    },
    {
      "epoch": "2026-03-29T05:07:41.896704Z",
      "apogee_km": 661.5744577533978,
      "perigee_km": 633.6695481454835,
      "latitude_deg": 4.162315331821391e-06,
      "longitude_deg": -67.0540629855894,
      "height_km": 658.0638598702435,
      "semi_major_axis_km": 7025.75900294944,
      "eccentricity": 0.0019859,
      "inclination_deg": 97.7655,
      "raan_deg": 196.4935,
      "arg_perigee_deg": 237.8838,
      "mean_anomaly_deg": 122.0444,
      "mean_motion_rev_day": 14.74222004
    },
    {
      "epoch": "2026-03-30T02:18:17.735904Z",
      "apogee_km": 661.5955079718378,
      "perigee_km": 633.6232014352217,
      "latitude_deg": 7.914814326625179e-06,
      "longitude_deg": -24.7273859463312,
      "height_km": 658.7005734540421,
      "semi_major_axis_km": 7025.7463547035295,
      "eccentricity": 0.0019907,
      "inclination_deg": 97.7653,
      "raan_deg": 197.3392,
      "arg_perigee_deg": 234.7783,
      "mean_anomaly_deg": 125.1563,
      "mean_motion_rev_day": 14.74225985
    },
    {
      "epoch": "2026-03-30T05:33:46.295712Z",
      "apogee_km": 661.5973970535933,
      "perigee_km": 633.6182114600169,
      "latitude_deg": -5.822718138021963e-06,
      "longitude_deg": -73.60008169171853,
      "height_km": 658.7922323424684,
      "semi_major_axis_km": 7025.744804256805,
      "eccentricity": 0.00199119,
      "inclination_deg": 97.7653,
      "raan_deg": 197.4693,
      "arg_perigee_deg": 234.3201,
      "mean_anomaly_deg": 125.6155,
      "mean_motion_rev_day": 14.74226473
    },
    {
      "epoch": "2026-03-30T13:42:27.633024Z",
      "apogee_km": 661.5960206058644,
      "perigee_km": 633.6054814058571,
      "latitude_deg": 4.7247019957926035e-05,
      "longitude_deg": 164.21847699854428,
      "height_km": 659.015979323926,
      "semi_major_axis_km": 7025.73775100586,
      "eccentricity": 0.001992,
      "inclination_deg": 97.7654,
      "raan_deg": 197.7946,
      "arg_perigee_deg": 233.1663,
      "mean_anomaly_deg": 126.772,
      "mean_motion_rev_day": 14.74228693
    },
    {
      "epoch": "2026-03-30T20:13:24.694752Z",
      "apogee_km": 661.6031553340381,
      "perigee_km": 633.5900098787988,
      "latitude_deg": 6.25476862400861e-05,
      "longitude_deg": 66.47332156636938,
      "height_km": 659.1982213945366,
      "semi_major_axis_km": 7025.733582606418,
      "eccentricity": 0.00199361,
      "inclination_deg": 97.7655,
      "raan_deg": 198.0548,
      "arg_perigee_deg": 232.2435,
      "mean_anomaly_deg": 127.6969,
      "mean_motion_rev_day": 14.74230005
    },
    {
      "epoch": "2026-03-31T07:37:34.515840Z",
      "apogee_km": 661.6167704796071,
      "perigee_km": 633.5615003611247,
      "latitude_deg": -3.0499593860322063e-05,
      "longitude_deg": -104.5804797875058,
      "height_km": 659.5086315705618,
      "semi_major_axis_km": 7025.726135420366,
      "eccentricity": 0.00199661,
      "inclination_deg": 97.7656,
      "raan_deg": 198.5102,
      "arg_perigee_deg": 230.6522,
      "mean_anomaly_deg": 129.2918,
      "mean_motion_rev_day": 14.74232349
    },
    {
      "epoch": "2026-04-01T12:56:50.815392Z",
      "apogee_km": 661.6635071775436,
      "perigee_km": 633.4805779242542,
      "latitude_deg": 7.612607287077034e-06,
      "longitude_deg": 175.56842320400338,
      "height_km": 660.287587322501,
      "semi_major_axis_km": 7025.709042550899,
      "eccentricity": 0.0020057,
      "inclination_deg": 97.7658,
      "raan_deg": 199.6812,
      "arg_perigee_deg": 226.56,
      "mean_anomaly_deg": 133.3941,
      "mean_motion_rev_day": 14.74237729
    },
    {
      "epoch": "2026-04-02T13:22:54.026400Z",
      "apogee_km": 661.6800106218052,
      "perigee_km": 633.4239541586476,
      "latitude_deg": -2.4565626322030402e-05,
      "longitude_deg": 169.0273713505676,
      "height_km": 660.8879407607695,
      "semi_major_axis_km": 7025.688982390226,
      "eccentricity": 0.00201091,
      "inclination_deg": 97.7659,
      "raan_deg": 200.657,
      "arg_perigee_deg": 223.1396,
      "mean_anomaly_deg": 136.8238,
      "mean_motion_rev_day": 14.74244043
    }
  ]
}